{
"type": "FeatureCollection",
"name": "aoi",
"crs": { "type": "name", "properties": { "name": "urn:ogc:def:crs:EPSG::5347" } },
"features": [
{"type":"Feature","properties":{"id":1,"area":10706.237},"geometry":{"type":"MultiPolygon","coordinates":[[[[5630195.683814758434892,6972763.793333251029253],[5630821.836918540298939,6972944.831566752865911],[5630854.555269113741815,6972951.215635159984231],[5630900.041756494902074,6972956.003686461597681],[5630975.05456024594605,6972981.539960078895092],[5631106.725971086882055,6973007.874242247082293],[5631267.125689746811986,6973071.714926291257143],[5631311.8141685789451,6973101.241242662072182],[5631356.502647408284247,6973130.767559031024575],[5631411.476569562219083,6973167.608953737653792],[5631435.505493913777173,6973177.052054964005947],[5631477.799947094172239,6973172.264003660529852],[5631502.538212159648538,6973192.214217423461378],[5631537.650588382966816,6973185.03214047010988],[5631549.620716642588377,6973163.485909603536129],[5631565.580887652933598,6973140.343661637976766],[5631597.501229675486684,6973137.949635988101363],[5631638.997652879916131,6973145.929723252542317],[5631658.149879517033696,6973165.081926705315709],[5631670.120007774792612,6973188.224174670875072],[5631690.868230088613927,6973197.800277277827263],[5631718.798529359512031,6973202.588328582234681],[5631760.294973987154663,6973205.780362784862518],[5631792.215316008776426,6973220.942525245249271],[5631838.499811942689121,6973227.326593647710979],[5631922.290709749795496,6973272.813081030733883],[5632074.710342904552817,6973398.898432016372681],[5632223.937941857613623,6973528.973825756460428],[5632461.301151629537344,6973817.365249126218259],[5632685.452886720187962,6974033.004893009550869],[5632813.134254810400307,6974140.824714951217175],[5632937.978259162977338,6974152.174169894307852],[5633363.58281946182251,6974452.934725834988058],[5633519.637824906036258,6974563.591911516152322],[5633655.831284199841321,6974617.501822484657168],[5634146.695210412144661,6974835.978830106556416],[5634319.774398266337812,6974875.701922399923205],[5634451.711811958812177,6974978.556357806548476],[5634615.569567674770951,6975097.016293756663799],[5634659.846124469302595,6975142.565740786492825],[5634744.854665581136942,6975204.353125524707139],[5634761.961758960038424,6975214.747632855549455],[5634872.419170256704092,6975282.859315449371934],[5634940.447715369053185,6975409.835645574145019],[5634983.758633567020297,6975432.066282331012189],[5635173.82088259793818,6975436.790601057931781],[5635363.924252863973379,6975477.932375220581889],[5635389.460526483133435,6975497.793921367265284],[5635412.159436366520822,6975494.95655763335526],[5635568.21444180700928,6975536.098331794142723],[5635649.0793082639575,6975537.517013663426042],[5635718.594719781540334,6975570.146696618758142],[5635798.040904369205236,6975604.195061443373561],[5635931.396999929100275,6975655.267608676105738],[5636073.265186697244644,6975736.841816067695618],[5636161.932803425937891,6975809.903932252898812],[5636193.143658091314137,6975812.741373701952398],[5636209.45864599198103,6975846.080319877713919],[5636238.541634518653154,6975868.069880723021924],[5636276.846034706570208,6975862.395161356776953],[5636327.563911475241184,6975880.12868470326066],[5636429.709005947224796,6975953.900141821242869],[5636544.622237227857113,6976064.557327498681843],[5636558.33616194780916,6976078.271252220496535],[5636572.050086669623852,6976085.364661557599902],[5636579.616389962844551,6976083.945979689247906],[5636606.571345447562635,6976096.714116499759257],[5636624.068421816453338,6976116.102768691256642],[5636633.999194891192019,6976133.126951101236045],[5636644.639308896847069,6976146.840875824913383],[5636657.407445708289742,6976152.279156317003071],[5636672.54005229473114,6976150.151133514940739],[5636684.598848170600832,6976149.205345603637397],[5636706.824864096939564,6976154.525402607396245],[5636723.37615255266428,6976161.97348241135478],[5636756.715176439844072,6976183.253710425458848],[5636770.901995116844773,6976190.583566741086543],[5636781.778556105680764,6976190.82001371961087],[5636805.896147856488824,6976206.898408220149577],[5636810.625087414868176,6976222.503908763639629],[5636827.649269826710224,6976232.90757579356432],[5636843.254770371131599,6976229.124424146488309],[5636853.658437400124967,6976231.015999969094992],[5636867.135915143415332,6976239.291644197888672],[5636884.16009755525738,6976247.330841448158026],[5636894.090870627202094,6976245.202818646095693],[5636908.514136282727122,6976245.675712601281703],[5636923.173848915845156,6976254.18780380859971],[5636934.75975083373487,6976258.207402433268726],[5636955.094190937466919,6976259.862531277351081],[5636982.049146423116326,6976266.719493637792766],[5637001.674245589412749,6976281.142759292386472],[5637005.457397238351405,6976308.570608734153211],[5637034.540375524200499,6976326.304132080636919],[5637048.963641179725528,6976316.373359005898237],[5637144.961114224977791,6976370.519716955721378],[5637267.853879658505321,6976481.086702993139625],[5637437.755174160003662,6976730.007741764187813],[5637487.171216319315135,6976714.239928835071623],[5637820.530285581946373,6977202.587963623926044],[5638089.044886090792716,6977183.567643950693309],[5638336.180989100597799,6976798.015853078104556],[5638487.256306100636721,6976894.231124620884657],[5638598.866403670050204,6976973.333026045002043],[5638665.795198887586594,6976881.048048812896013],[5639024.787872575223446,6977123.678187071345747],[5639089.967571535147727,6977170.063479494303465],[5639230.363201129250228,6976978.42730450257659],[5639151.923063011839986,6976925.93366814404726],[5639570.74947660882026,6976346.48094086907804],[5639641.998832626268268,6976248.434260682202876],[5639709.119102328084409,6976157.688833641819656],[5639731.153505598194897,6976174.571672973223031],[5640070.756019295193255,6976490.634781752713025],[5640419.069583768025041,6976689.418613272719085],[5640525.680004861205816,6976763.967488251626492],[5640651.869488294236362,6976855.172762054949999],[5640495.927385988645256,6977090.790287914685905],[5640706.16451761405915,6977243.794376904144883],[5640859.157514826394618,6977033.57268120534718],[5640892.592025918886065,6977025.223229539580643],[5641104.263327044434845,6977175.859377627260983],[5641352.18474050052464,6977348.602901389822364],[5641508.59848730172962,6977135.793281729333103],[5641740.499968119896948,6977302.499941083602607],[5641670.245967169292271,6977402.998855290934443],[5641883.177180682308972,6977551.8488859962672],[5641873.334080338478088,6977565.929599062539637],[5641884.934587699361145,6977619.706667098216712],[5642089.672399047762156,6977764.200171726755798],[5642159.144396172836423,6977682.608331359922886],[5642201.438849350437522,6977606.79751905798912],[5642436.851371765136719,6977774.379314670339227],[5642457.419332605786622,6977758.328851439990103],[5642523.036295223981142,6977661.461104769259691],[5642603.549827418290079,6977543.522094150073826],[5642856.171091912314296,6977707.155479968525469],[5643066.015416265465319,6977860.326653837226331],[5642912.844363921321929,6978070.171003188937902],[5642910.355059158988297,6978137.907386351376772],[5643120.556695329025388,6978290.587961105629802],[5643841.280519442632794,6978795.003909967839718],[5644052.183158599771559,6978946.714436712674797],[5643885.300925673916936,6979178.707842783071101],[5644372.830819284543395,6979529.10756229236722],[5644553.566133487969637,6979282.169081101194024],[5644763.185492807067931,6979435.986364704556763],[5644804.684796393848956,6979435.673672864213586],[5645137.564726996235549,6979374.112892656587064],[5645234.645250396803021,6979883.309630390256643],[5645245.345859262160957,6979949.043801699765027],[5645249.831512443721294,6979959.526228212751448],[5645254.021057332865894,6979981.072459077462554],[5645265.991185592487454,6979990.050055271945894],[5645280.953845914453268,6979984.064991143532097],[5645289.332935694605112,6979963.715773101896048],[5645314.470205037854612,6979961.920253864489496],[5645324.644814055413008,6979947.556099953129888],[5645355.767147527076304,6979929.002401153557003],[5645415.617788819596171,6979909.251689528115094],[5645604.14781984500587,6979963.117193098179996],[5645711.878463212400675,6979978.678433424793184],[5645806.442678415216506,6980039.72591941896826],[5645839.360386103391647,6980057.681207537651062],[5645881.255778065882623,6980073.840953079983592],[5645912.378121858462691,6980073.840940712019801],[5645960.857130981981754,6980097.182703184895217],[5646009.934656840749085,6980129.502049481496215],[5646066.792766068130732,6980164.813927844166756],[5646093.127048236317933,6980194.739248488098383],[5646126.044900946319103,6980205.512363922782242],[5646133.825484311208129,6980221.971290275454521],[5646136.219509964808822,6980232.145899294875562],[5646145.496359365060925,6980246.210800000466406],[5646154.773208764381707,6980250.400344890542328],[5646164.648564578033984,6980245.013787175528705],[5646170.035122293047607,6980240.225735869258642],[5646181.107490935362875,6980236.036190974526107],[5646222.4044334217906,6980236.93395059928298],[5646281.058061887510121,6980253.692130161449313],[5646329.537081333808601,6980267.457777658477426],[5646345.696754482574761,6980277.632386676967144],[5646352.878831437788904,6980291.996540586464107],[5646410.933950333856046,6980309.652474394068122],[5646559.363543894141912,6980368.006855026818812],[5646573.727697802707553,6980391.94711154513061],[5646604.251524860039353,6980396.735162845812738],[5646643.154441701248288,6980391.94711154513061],[5646710.187159947119653,6980418.87990012485534],[5646713.32931861653924,6980425.16421746276319],[5646719.314382744021714,6980432.944800831377506],[5646733.678536655381322,6980434.141813655383885],[5646745.349411706440151,6980432.047041212208569],[5646775.274732353165746,6980443.418663057498634],[5646783.055315722711384,6980452.695512455888093],[5646788.441882539540529,6980450.600727144628763],[5646837.818652503192425,6980461.373855446465313],[5646839.913424947299063,6980468.256679194048047],[5646850.387287174351513,6980472.446224082261324],[5646864.152934671379626,6980471.249211258254945],[5646880.911114231683314,6980480.825313865207136],[5646886.59692750684917,6980489.503657265566289],[5646897.669293792918324,6980494.590961362235248],[5646913.828966945409775,6980502.07229152135551],[5647023.056387299671769,6980558.63114754203707],[5647193.181835170835257,6980641.225032520480454],[5647279.366851297207177,6980662.77115092985332],[5647346.399476875551045,6980662.771263384260237],[5647375.127784695476294,6980668.756327512674034],[5647460.115695329383016,6980650.801135124638677],[5647486.450022111646831,6980651.997967815957963],[5647527.148413574323058,6980653.195160777308047],[5647585.802042039111257,6980648.407109473831952],[5647641.463140111416578,6980653.195221961475909],[5647716.276440052315593,6980640.62652610335499],[5647767.747991564683616,6980646.611590235494077],[5647821.613568727858365,6980655.589186428114772],[5647889.244793385267258,6980664.566782621666789],[5647949.095434673130512,6980669.953340337611735],[5648020.916204224340618,6980660.975744142197073],[5648062.811653129756451,6980663.369769794866443],[5648119.669762355275452,6980640.02801969088614],[5648187.899493427015841,6980621.474320890381932],[5648259.720262976363301,6980617.883282411843538],[5648332.139538939110935,6980610.102699045091867],[5648414.134917507879436,6980625.663865779526532],[5648708.001566247083247,6980728.606968801468611],[5648945.010105760768056,6980768.108392054215074],[5649156.88137592934072,6980795.639687049202621],[5649342.418363935314119,6980825.565007694065571],[5649480.07483890466392,6980832.747084647417068],[5649620.12533952575177,6980817.185917912982404],[5649896.940713063813746,6980797.674116333946586],[5650162.812757918611169,6980835.047021897509694],[5651007.807455695234239,6979533.35772692412138],[5650746.061433589085937,6979505.636719071306288],[5649186.585027559660375,6978730.526559659279883],[5648458.97615977935493,6978385.753296645358205],[5647780.440815094858408,6978267.525169565342367],[5648870.56430228240788,6976674.453925055451691],[5648166.029010443016887,6975808.144185141660273],[5648082.291017930954695,6975845.07774954661727],[5647945.638525812886655,6975840.362751554697752],[5647906.651625080965459,6975799.788769692182541],[5647810.645383293740451,6975759.086068004369736],[5647781.844088742509484,6975721.858998576179147],[5647697.640641376376152,6975656.274608363397419],[5647665.478128038346767,6975587.52863085269928],[5647625.144142947159708,6975549.078676082193851],[5647690.131992598064244,6975468.902010510675609],[5647606.751383204013109,6975241.934056559577584],[5647568.649185766465962,6975159.2362503958866],[5647612.54671783093363,6975133.673091446049511],[5647538.800012699328363,6975061.926720845513046],[5647515.620043087750673,6974888.435261289589107],[5647384.237909391522408,6974874.09176132734865],[5647360.857062027789652,6974941.673247479833663],[5647288.184772724285722,6974976.931343035772443],[5647144.60729085188359,6974975.384740157984197],[5646984.441487199626863,6974887.213033173233271],[5646958.350476952269673,6974779.810754055157304],[5646930.892318704165518,6974736.050050338730216],[5646884.751107784919441,6974689.147041939198971],[5646775.224856839515269,6974657.490917661227286],[5646688.274055492132902,6974634.267722324468195],[5646603.111427575349808,6974561.887525935657322],[5646194.966059398837388,6975188.287124349735677],[5645476.825981926172972,6974857.973052770830691],[5645014.063908271491528,6974394.983215891756117],[5644541.356015069410205,6974266.823301935568452],[5644628.052988031879067,6973754.60313025675714],[5644576.117623741738498,6973757.853813015855849],[5644551.525915266014636,6973380.346936237066984],[5643503.16976204328239,6973439.093730391003191],[5643517.244602417573333,6973649.808467464521527],[5643598.785606572404504,6973687.946784232743084],[5643403.051326672546566,6973954.63376853428781],[5643381.323189637623727,6973966.159547644667327],[5643366.316055155359209,6973966.020643267780542],[5643347.033513492904603,6973954.481743879616261],[5643313.140872259624302,6973959.29855243768543],[5643294.327550681307912,6973967.253281611017883],[5643296.940478977747262,6973992.696818724274635],[5643283.245831568725407,6974005.529597361572087],[5643266.878106402233243,6973990.419659026898444],[5643251.695984180085361,6974003.788364255800843],[5643228.426802767440677,6973992.845553532242775],[5643222.277829194441438,6974007.4972067726776],[5643187.711483840830624,6973984.323176456615329],[5643169.313797381706536,6973988.767011869698763],[5643142.184845476411283,6973962.91334966942668],[5643121.00470953155309,6973976.426418334245682],[5643097.807734398171306,6973968.482637612149119],[5643310.094955951906741,6972004.878417050465941],[5643088.858018984086812,6970232.760012983344495],[5640695.643346968106925,6970060.501251545734704],[5640589.378820703364909,6970072.607336815446615],[5639641.282607370056212,6970305.334717471152544],[5639489.778589241206646,6970323.079923771321774],[5639324.500064628198743,6970313.059514293447137],[5639180.365007240325212,6970270.340062905102968],[5633160.667284447699785,6968384.125372181646526],[5630195.683814758434892,6972763.793333251029253]]]]}}
]
}
